[{"OBJECT_NAME":"STARLINK-3233","OBJECT_ID":"2021-115Y","EPOCH":"2026-03-09T12:19:01.294752","MEAN_MOTION":15.0883373,"ECCENTRICITY":0.00012803,"INCLINATION":53.2174,"RA_OF_ASC_NODE":149.9127,"ARG_OF_PERICENTER":94.8594,"MEAN_ANOMALY":265.2545,"EPHEMERIS_TYPE":0,"CLASSIFICATION_TYPE":"U","NORAD_CAT_ID":49746,"ELEMENT_SET_NO":999,"REV_AT_EPOCH":23550,"BSTAR":4.1853167e-5,"MEAN_MOTION_DOT":3.78e-6,"MEAN_MOTION_DDOT":0},{"OBJECT_NAME":"OOV-CUBE (TUBSAT-30)","OBJECT_ID":"2024-128F","EPOCH":"2026-03-09T23:05:47.786496","MEAN_MOTION":15.02254773,"ECCENTRICITY":0.00544595,"INCLINATION":61.9946,"RA_OF_ASC_NODE":211.4347,"ARG_OF_PERICENTER":112.4275,"MEAN_ANOMALY":248.2597,"EPHEMERIS_TYPE":0,"CLASSIFICATION_TYPE":"U","NORAD_CAT_ID":60240,"ELEMENT_SET_NO":999,"REV_AT_EPOCH":9120,"BSTAR":0.00032902554,"MEAN_MOTION_DOT":4.289e-5,"MEAN_MOTION_DDOT":0}]
